     2.100          NAVIGATION                              RINEX VERSION / TYPE
fic2rin                                 04/27/2014 00:21:28 PGM / RUN BY / DATE
                                                            END OF HEADER
10 14  4 27  0  0  0.0 -.123161822557D-03 -.136424205266D-11  .000000000000D+00
     .168000000000D+03  .869062500000D+02  .438339687179D-08 -.308154346229D+01
     .435858964920D-05  .135085443035D-01  .124853104353D-04  .515373749352D+04
     .000000000000D+00  .558793544769D-07 -.136381250381D+00 -.670552253723D-07
     .942660603198D+00  .126937500000D+03  .863082985751D+00 -.779746765297D-08
     .172507185617D-09  .100000000000D+01  .179000000000D+04  .000000000000D+00
     .340000000000D+01  .000000000000D+00 -.279396772385D-08  .168000000000D+03
     .597606000000D+06  .400000000000D+01
11 14  4 27  0  0  0.0 -.484028365463D-03 -.318323145621D-11  .000000000000D+00
     .600000000000D+02 -.504375000000D+02  .674420949482D-08 -.461017648584D+00
    -.251270830631D-05  .148762376048D-01  .462681055069D-05  .515369657707D+04
     .000000000000D+00 -.171363353729D-06 -.151409558820D+01  .949949026108D-07
     .890004903317D+00  .250531250000D+03  .127952421407D+01 -.956825569911D-08
    -.456447584303D-09  .100000000000D+01  .179000000000D+04  .000000000000D+00
     .240000000000D+01  .000000000000D+00 -.121071934700D-07  .600000000000D+02
     .597606000000D+06  .400000000000D+01
12 14  4 27  0  0  0.0  .201161019504D-03  .238742359215D-11  .000000000000D+00
     .620000000000D+02  .334375000000D+01  .386766110361D-08 -.106150443261D+01
     .201165676117D-06  .511025718879D-02  .128094106913D-04  .515364110565D+04
     .000000000000D+00  .119209289551D-06  .303064173389D+01 -.745058059692D-08
     .987653604011D+00  .147250000000D+03  .406386541162D+00 -.761031700025D-08
     .447875798682D-09  .100000000000D+01  .179000000000D+04  .000000000000D+00
     .240000000000D+01  .000000000000D+00 -.121071934700D-07  .620000000000D+02
     .597606000000D+06  .400000000000D+01
13 14  4 27  0  0  0.0  .568153336644D-05 -.375166564481D-11  .000000000000D+00
     .470000000000D+02  .412187500000D+02  .439482591928D-08  .169828129877D+01
     .214204192162D-05  .537847611122D-02  .222027301788D-05  .515359628868D+04
     .000000000000D+00  .117346644402D-06  .100319069517D+01  .484287738800D-07
     .977796848204D+00  .344156250000D+03  .223644968172D+01 -.825427239501D-08
     .207508643568D-09  .100000000000D+01  .179000000000D+04  .000000000000D+00
     .240000000000D+01  .000000000000D+00 -.111758708954D-07  .470000000000D+02
     .597606000000D+06  .400000000000D+01
14 14  4 27  0  0  0.0  .178121030331D-03 -.341060513165D-11  .000000000000D+00
     .870000000000D+02  .575937500000D+02  .456447584303D-08  .204491494367D+01
     .301748514175D-05  .740005518310D-02  .291503965855D-05  .515364675522D+04
     .000000000000D+00 -.447034835815D-07  .971533251802D+00 -.162050127983D-06
     .970391640273D+00  .325968750000D+03 -.200064332678D+01 -.834499045949D-08
     .346800159904D-09  .100000000000D+01  .179000000000D+04  .000000000000D+00
     .340000000000D+01  .000000000000D+00 -.931322574615D-08  .870000000000D+02
     .597606000000D+06  .400000000000D+01
15 14  4 27  0  0  0.0 -.176157336682D-03 -.216004991671D-11  .000000000000D+00
     .410000000000D+02  .722500000000D+02  .538879589355D-08  .143637789554D+01
     .375881791115D-05  .624095101375D-02  .288896262646D-05  .515367776680D+04
     .000000000000D+00 -.633299350739D-07  .860491875489D+00  .279396772385D-07
     .937067397784D+00  .310687500000D+03  .275065157225D+00 -.881393856449D-08
     .264653881039D-09  .100000000000D+01  .179000000000D+04  .000000000000D+00
     .240000000000D+01  .000000000000D+00 -.102445483208D-07  .410000000000D+02
     .597606000000D+06  .400000000000D+01
16 14  4 27  0  0  0.0 -.221324618906D-03  .181898940355D-11  .000000000000D+00
     .570000000000D+02  .400000000000D+01  .373765568836D-08  .306579988171D+01
     .258907675743D-06  .774434930645D-02  .125076621771D-04  .515358529472D+04
     .000000000000D+00 -.115483999252D-06  .304916930463D+01 -.745058059692D-07
     .988264227480D+00  .154656250000D+03  .188963002679D+00 -.743280960635D-08
     .362515100209D-09  .100000000000D+01  .179000000000D+04  .000000000000D+00
     .240000000000D+01  .000000000000D+00 -.102445483208D-07  .570000000000D+02
     .597606000000D+06  .400000000000D+01
17 14  4 27  0  0  0.0 -.883303582668D-04 -.306954461848D-11  .000000000000D+00
     .730000000000D+02  .232187500000D+02  .486020244694D-08  .210837889298D+01
     .964850187302D-06  .929246062879D-02  .458955764771D-05  .515357218742D+04
     .000000000000D+00 -.633299350739D-07 -.220208734964D+01 -.227242708206D-06
     .968148982468D+00  .295218750000D+03 -.210129548460D+01 -.823212861549D-08
     .182864759908D-09  .100000000000D+01  .179000000000D+04  .000000000000D+00
     .340000000000D+01  .000000000000D+00 -.102445483208D-07  .730000000000D+02
     .597606000000D+06  .400000000000D+01
18 14  4 27  0  0  0.0  .315683428198D-03  .227373675443D-11  .000000000000D+00
     .630000000000D+02  .625000000000D+02  .470519599030D-08 -.255561390173D+01
     .318512320518D-05  .151433054125D-01  .128876417875D-04  .515369785881D+04
     .000000000000D+00  .135973095894D-06 -.158429162319D+00 -.113621354103D-06
     .926418721995D+00  .109937500000D+03 -.204589535333D+01 -.787639951223D-08
     .177150236161D-09  .100000000000D+01  .179000000000D+04  .000000000000D+00
     .240000000000D+01  .000000000000D+00 -.111758708954D-07  .630000000000D+02
     .597606000000D+06  .400000000000D+01
19 14  4 27  0  0  0.0 -.453415792435D-03 -.227373675443D-11  .000000000000D+00
     .410000000000D+02  .265937500000D+02  .505271046567D-08  .134219053802D+01
     .168569386005D-05  .102242224384D-01  .454485416412D-05  .515360003662D+04
     .000000000000D+00  .502914190292D-07 -.215116579578D+01  .208616256714D-06
     .965240783250D+00  .294625000000D+03  .418082421988D+00 -.854821321025D-08
     .596453416107D-10  .100000000000D+01  .179000000000D+04  .000000000000D+00
     .240000000000D+01  .000000000000D+00 -.149011611938D-07  .410000000000D+02
     .597606000000D+06  .400000000000D+01
20 14  4 27  0  0  0.0  .183591619134D-03  .375166564481D-11  .000000000000D+00
     .460000000000D+02  .596875000000D+02  .484163024476D-08 -.202684340399D+01
     .307150185108D-05  .580321811140D-02  .121667981148D-04  .515381609154D+04
     .000000000000D+00  .145286321640D-06 -.211510457254D+00 -.260770320892D-07
     .927381352813D+00  .128406250000D+03  .133526579189D+01 -.809105131048D-08
    -.567880797372D-10  .100000000000D+01  .179000000000D+04  .000000000000D+00
     .240000000000D+01  .000000000000D+00 -.838190317154D-08  .460000000000D+02
     .597606000000D+06  .400000000000D+01
21 14  4 27  0  0  0.0 -.357672572136D-03 -.216004991671D-11  .000000000000D+00
     .350000000000D+02 -.655000000000D+02  .524736143081D-08 -.157736351381D+01
    -.333413481712D-05  .214489321224D-01  .721961259842D-05  .515376419258D+04
     .000000000000D+00  .525265932083D-06 -.120362801388D+01  .875443220139D-07
     .932027574781D+00  .218906250000D+03 -.203418103681D+01 -.830784605514D-08
    -.636455082337D-09  .100000000000D+01  .179000000000D+04  .000000000000D+00
     .240000000000D+01  .000000000000D+00 -.111758708954D-07  .350000000000D+02
     .597606000000D+06  .400000000000D+01
22 14  4 27  0  0  0.0  .229830853641D-03  .284217094304D-11  .000000000000D+00
     .540000000000D+02  .583125000000D+02  .486270255108D-08 -.310958535336D+01
     .298582017422D-05  .711507804226D-02  .124666839838D-04  .515373457336D+04
     .000000000000D+00  .391155481339D-07 -.156486778691D+00 -.316649675369D-07
     .924191266836D+00  .118687500000D+03 -.206372402374D+01 -.803569186168D-08
     .104647216119D-09  .100000000000D+01  .179000000000D+04  .000000000000D+00
     .240000000000D+01  .000000000000D+00 -.172294676304D-07  .540000000000D+02
     .597606000000D+06  .400000000000D+01
23 14  4 27  0  0  0.0 -.156881287694D-04 -.318323145621D-11  .000000000000D+00
     .330000000000D+02  .661250000000D+02  .497342144868D-08  .102011780281D+01
     .351853668690D-05  .918660289608D-02  .280514359474D-05  .515356135750D+04
     .000000000000D+00 -.558793544769D-07  .906719495775D+00  .160187482834D-06
     .952089158495D+00  .320437500000D+03 -.279177262390D+01 -.863214527779D-08
     .185007706314D-09  .100000000000D+01  .179000000000D+04  .000000000000D+00
     .240000000000D+01  .000000000000D+00 -.200234353542D-07  .330000000000D+02
     .597606000000D+06  .400000000000D+01
24 14  4 27  0  0  0.0 -.274106860161D-04 -.682121026330D-12  .000000000000D+00
     .108000000000D+03 -.109468750000D+03  .482448667352D-08  .203296425324D+00
    -.562705099583D-05  .206592213362D-02  .662542879581D-05  .515373613930D+04
     .000000000000D+00  .819563865662D-07  .193416930356D+01  .111758708954D-07
     .956792238237D+00  .251906250000D+03  .329374618701D+00 -.839320675361D-08
    -.382515933324D-09  .100000000000D+01  .179000000000D+04  .000000000000D+00
     .340000000000D+01  .000000000000D+00  .279396772385D-08  .108000000000D+03
     .597606000000D+06  .400000000000D+01
25 14  4 27  0  0  0.0  .227098353207D-04  .795807864051D-12  .000000000000D+00
     .880000000000D+02 -.971875000000D+01  .403516808095D-08 -.183528734391D+01
    -.527128577232D-06  .353662937414D-02  .130441039801D-04  .515362614059D+04
     .000000000000D+00  .912696123123D-07  .298859127576D+01  .186264514923D-08
     .976366010455D+00  .135968750000D+03  .651727926970D+00 -.770174938020D-08
     .406088343781D-09  .100000000000D+01  .179000000000D+04  .000000000000D+00
     .240000000000D+01  .000000000000D+00  .512227416039D-08  .880000000000D+02
     .597606000000D+06  .400000000000D+01
